[{"OBJECT_NAME":"TIANMU-1 22","OBJECT_ID":"2023-208D","EPOCH":"2026-03-09T22:39:05.738688","MEAN_MOTION":15.29457749,"ECCENTRICITY":0.00031332,"INCLINATION":97.4379,"RA_OF_ASC_NODE":184.9419,"ARG_OF_PERICENTER":351.9312,"MEAN_ANOMALY":8.1877,"EPHEMERIS_TYPE":0,"CLASSIFICATION_TYPE":"U","NORAD_CAT_ID":58663,"ELEMENT_SET_NO":999,"REV_AT_EPOCH":12215,"BSTAR":0.00038239675,"MEAN_MOTION_DOT":0.00010851,"MEAN_MOTION_DDOT":0},{"OBJECT_NAME":"STARLINK-32091","OBJECT_ID":"2024-086C","EPOCH":"2026-03-09T23:34:49.829088","MEAN_MOTION":15.27567165,"ECCENTRICITY":0.00010357,"INCLINATION":43.0011,"RA_OF_ASC_NODE":50.7412,"ARG_OF_PERICENTER":266.0164,"MEAN_ANOMALY":94.057,"EPHEMERIS_TYPE":0,"CLASSIFICATION_TYPE":"U","NORAD_CAT_ID":59684,"ELEMENT_SET_NO":999,"REV_AT_EPOCH":10425,"BSTAR":0.0001172637,"MEAN_MOTION_DOT":2.965e-5,"MEAN_MOTION_DDOT":0}]
